{"type": "FeatureCollection", "features": [ {"type": "Feature", "properties": {"norad_id": 32320, "name": "FENGYUN 1C DEB", "group": "fengyun-1c-debris", "lat": 3.218229679572824, "lon": 21.86600015483011, "alt_km": 795.3942459206655, "timestamp": "2025-12-10T14:53:37.377196+00:00", "meta": {"OBJECT_NAME": "FENGYUN 1C DEB", "OBJECT_ID": "1999-025CXM", "EPOCH": "2025-12-06T08:04:56.354304", "MEAN_MOTION": 14.36096557, "ECCENTRICITY": 0.00560395, "INCLINATION": 100.3737, "RA_OF_ASC_NODE": 196.129, "ARG_OF_PERICENTER": 65.6155, "MEAN_ANOMALY": 295.0859, "EPHEMERIS_TYPE": 0, "CLASSIFICATION_TYPE": "U", "NORAD_CAT_ID": 32320, "ELEMENT_SET_NO": 999, "REV_AT_EPOCH": 62081, "BSTAR": 0.001523428, "MEAN_MOTION_DOT": 4.459e-05, "MEAN_MOTION_DDOT": 0}, "tle": {"line1": "1 32320U 99025CXM 25340.33676336  .00004459  00000+0  15234-2 0  9994", "line2": "2 32320 100.3737 196.1290 0056039  65.6155 295.0859 14.36096557620813"}}, "geometry": {"type": "Point", "coordinates": [21.86600015483011, 3.218229679572824]}}, {"type": "Feature", "properties": {"norad_id": 32322, "name": "FENGYUN 1C DEB", "group": "fengyun-1c-debris", "lat": -39.981282292546894, "lon": -125.80327507628968, "alt_km": 1385.4148289441882, "timestamp": "2025-12-10T14:53:37.377205+00:00", "meta": {"OBJECT_NAME": "FENGYUN 1C DEB", "OBJECT_ID": "1999-025CXP", "EPOCH": "2025-12-08T21:42:27.593856", "MEAN_MOTION": 13.34125236, "ECCENTRICITY": 0.0418921, "INCLINATION": 98.3703, "RA_OF_ASC_NODE": 225.6967, "ARG_OF_PERICENTER": 107.3236, "MEAN_ANOMALY": 257.4162, "EPHEMERIS_TYPE": 0, "CLASSIFICATION_TYPE": "U", "NORAD_CAT_ID": 32322, "ELEMENT_SET_NO": 999, "REV_AT_EPOCH": 60328, "BSTAR": 0.0014414, "MEAN_MOTION_DOT": 1.148e-05, "MEAN_MOTION_DDOT": 0}, "tle": {"line1": "1 32322U 99025CXP 25342.90448604  .00001148  00000+0  14414-2 0  9997", "line2": "2 32322  98.3703 225.6967 0418921 107.3236 257.4162 13.34125236603284"}}, "geometry": {"type": "Point", "coordinates": [-125.80327507628968, -39.981282292546894]}}, {"type": "Feature", "properties": {"norad_id": 32323, "name": "FENGYUN 1C DEB", "group": "fengyun-1c-debris", "lat": 45.532641401658616, "lon": 119.11776801031698, "alt_km": 1013.9379919361063, "timestamp": "2025-12-10T14:53:37.377214+00:00", "meta": {"OBJECT_NAME": "FENGYUN 1C DEB", "OBJECT_ID": "1999-025CXQ", "EPOCH": "2025-12-05T16:00:52.628256", "MEAN_MOTION": 13.96423813, "ECCENTRICITY": 0.01564823, "INCLINATION": 98.5677, "RA_OF_ASC_NODE": 123.338, "ARG_OF_PERICENTER": 229.7568, "MEAN_ANOMALY": 128.9821, "EPHEMERIS_TYPE": 0, "CLASSIFICATION_TYPE": "U", "NORAD_CAT_ID": 32323, "ELEMENT_SET_NO": 999, "REV_AT_EPOCH": 60171, "BSTAR": 0.0059154955, "MEAN_MOTION_DOT": 9.02e-05, "MEAN_MOTION_DDOT": 0}, "tle": {"line1": "1 32323U 99025CXQ 25339.66727579  .00009020  00000+0  59155-2 0  9996", "line2": "2 32323  98.5677 123.3380 0156482 229.7568 128.9821 13.96423813601718"}}, "geometry": {"type": "Point", "coordinates": [119.11776801031698, 45.532641401658616]}}, {"type": "Feature", "properties": {"norad_id": 32324, "name": "FENGYUN 1C DEB", "group": "fengyun-1c-debris", "lat": 48.130206679920455, "lon": -82.94041326519189, "alt_km": 864.6565832977694, "timestamp": "2025-12-10T14:53:37.377223+00:00", "meta": {"OBJECT_NAME": "FENGYUN 1C DEB", "OBJECT_ID": "1999-025CXR", "EPOCH": "2025-12-08T06:02:37.847616", "MEAN_MOTION": 14.09135858, "ECCENTRICITY": 0.00501078, "INCLINATION": 99.5339, "RA_OF_ASC_NODE": 83.7481, "ARG_OF_PERICENTER": 36.451, "MEAN_ANOMALY": 324.0052, "EPHEMERIS_TYPE": 0, "CLASSIFICATION_TYPE": "U", "NORAD_CAT_ID": 32324, "ELEMENT_SET_NO": 999, "REV_AT_EPOCH": 63935, "BSTAR": 0.00079862211, "MEAN_MOTION_DOT": 1.354e-05, "MEAN_MOTION_DDOT": 0}, "tle": {"line1": "1 32324U 99025CXR 25342.25182694  .00001354  00000+0  79862-3 0  9999", "line2": "2 32324  99.5339  83.7481 0050107  36.4510 324.0052 14.09135858639353"}}, "geometry": {"type": "Point", "coordinates": [-82.94041326519189, 48.130206679920455]}}, {"type": "Feature", "properties": {"norad_id": 32326, "name": "FENGYUN 1C DEB", "group": "fengyun-1c-debris", "lat": -36.68190539012023, "lon": -79.37878804002034, "alt_km": 1292.8879435307163, "timestamp": "2025-12-10T14:53:37.377232+00:00", "meta": {"OBJECT_NAME": "FENGYUN 1C DEB", "OBJECT_ID": "1999-025CXT", "EPOCH": "2025-11-30T02:32:37.979232", "MEAN_MOTION": 13.69261307, "ECCENTRICITY": 0.03856265, "INCLINATION": 98.486, "RA_OF_ASC_NODE": 264.9459, "ARG_OF_PERICENTER": 173.0082, "MEAN_ANOMALY": 187.6669, "EPHEMERIS_TYPE": 0, "CLASSIFICATION_TYPE": "U", "NORAD_CAT_ID": 32326, "ELEMENT_SET_NO": 999, "REV_AT_EPOCH": 63009, "BSTAR": 0.00044957354, "MEAN_MOTION_DOT": 6.22e-06, "MEAN_MOTION_DDOT": 0}, "tle": {"line1": "1 32326U 99025CXT 25334.10599513  .00000622  00000+0  44957-3 0  9992", "line2": "2 32326  98.4860 264.9459 0385626 173.0082 187.6669 13.69261307630092"}}, "geometry": {"type": "Point", "coordinates": [-79.37878804002034, -36.68190539012023]}}, {"type": "Feature", "properties": {"norad_id": 32331, "name": "FENGYUN 1C DEB", "group": "fengyun-1c-debris", "lat": -0.5884495635381289, "lon": -47.98541981614156, "alt_km": 664.8765192687861, "timestamp": "2025-12-10T14:53:37.377241+00:00", "meta": {"OBJECT_NAME": "FENGYUN 1C DEB", "OBJECT_ID": "1999-025CXY", "EPOCH": "2025-11-11T08:35:02.141088", "MEAN_MOTION": 14.68670701, "ECCENTRICITY": 0.0013407, "INCLINATION": 99.1837, "RA_OF_ASC_NODE": 279.0061, "ARG_OF_PERICENTER": 226.0291, "MEAN_ANOMALY": 133.9806, "EPHEMERIS_TYPE": 0, "CLASSIFICATION_TYPE": "U", "NORAD_CAT_ID": 32331, "ELEMENT_SET_NO": 999, "REV_AT_EPOCH": 60157, "BSTAR": 0.0092524, "MEAN_MOTION_DOT": 0.0005428, "MEAN_MOTION_DDOT": 0}, "tle": {"line1": "1 32331U 99025CXY 25315.35766367  .00054280  00000+0  92524-2 0  9998", "line2": "2 32331  99.1837 279.0061 0013407 226.0291 133.9806 14.68670701601572"}}, "geometry": {"type": "Point", "coordinates": [-47.98541981614156, -0.5884495635381289]}}, {"type": "Feature", "properties": {"norad_id": 32332, "name": "FENGYUN 1C DEB", "group": "fengyun-1c-debris", "lat": -19.983772515661013, "lon": -144.67476765343608, "alt_km": 1003.4085574843994, "timestamp": "2025-12-10T14:53:37.377250+00:00", "meta": {"OBJECT_NAME": "FENGYUN 1C DEB", "OBJECT_ID": "1999-025CXZ", "EPOCH": "2025-12-05T10:09:55.704096", "MEAN_MOTION": 13.97072998, "ECCENTRICITY": 0.02849151, "INCLINATION": 99.1331, "RA_OF_ASC_NODE": 33.5093, "ARG_OF_PERICENTER": 332.9459, "MEAN_ANOMALY": 25.7092, "EPHEMERIS_TYPE": 0, "CLASSIFICATION_TYPE": "U", "NORAD_CAT_ID": 32332, "ELEMENT_SET_NO": 999, "REV_AT_EPOCH": 92934, "BSTAR": 0.0024167195, "MEAN_MOTION_DOT": 4.715e-05, "MEAN_MOTION_DDOT": 0}, "tle": {"line1": "1 32332U 99025CXZ 25339.42356139  .00004715  00000+0  24167-2 0  9991", "line2": "2 32332  99.1331  33.5093 0284915 332.9459  25.7092 13.97072998929345"}}, "geometry": {"type": "Point", "coordinates": [-144.67476765343608, -19.983772515661013]}}, {"type": "Feature", "properties": {"norad_id": 32334, "name": "FENGYUN 1C DEB", "group": "fengyun-1c-debris", "lat": 1.6572621204506175, "lon": 38.73074695800227, "alt_km": 877.77258597746, "timestamp": "2025-12-10T14:53:37.377278+00:00", "meta": {"OBJECT_NAME": "FENGYUN 1C DEB", "OBJECT_ID": "1999-025CYB", "EPOCH": "2025-12-09T09:45:40.247712", "MEAN_MOTION": 14.01637859, "ECCENTRICITY": 0.00663063, "INCLINATION": 99.2531, "RA_OF_ASC_NODE": 37.7704, "ARG_OF_PERICENTER": 290.4168, "MEAN_ANOMALY": 68.9884, "EPHEMERIS_TYPE": 0, "CLASSIFICATION_TYPE": "U", "NORAD_CAT_ID": 32334, "ELEMENT_SET_NO": 999, "REV_AT_EPOCH": 93893, "BSTAR": 0.00057145098, "MEAN_MOTION_DOT": 8.36e-06, "MEAN_MOTION_DDOT": 0}, "tle": {"line1": "1 32334U 99025CYB 25343.40671583  .00000836  00000+0  57145-3 0  9992", "line2": "2 32334  99.2531  37.7704 0066306 290.4168  68.9884 14.01637859938934"}}, "geometry": {"type": "Point", "coordinates": [38.73074695800227, 1.6572621204506175]}}, {"type": "Feature", "properties": {"norad_id": 32340, "name": "FENGYUN 1C DEB", "group": "fengyun-1c-debris", "lat": 74.23915535313989, "lon": -43.893695905675195, "alt_km": 656.9109432311689, "timestamp": "2025-12-10T14:53:37.377287+00:00", "meta": {"OBJECT_NAME": "FENGYUN 1C DEB", "OBJECT_ID": "1999-025CYH", "EPOCH": "2025-12-08T23:27:25.144704", "MEAN_MOTION": 14.74407409, "ECCENTRICITY": 0.00342161, "INCLINATION": 98.9824, "RA_OF_ASC_NODE": 348.3726, "ARG_OF_PERICENTER": 306.271, "MEAN_ANOMALY": 53.5335, "EPHEMERIS_TYPE": 0, "CLASSIFICATION_TYPE": "U", "NORAD_CAT_ID": 32340, "ELEMENT_SET_NO": 999, "REV_AT_EPOCH": 97141, "BSTAR": 0.003073469, "MEAN_MOTION_DOT": 0.0002058, "MEAN_MOTION_DDOT": 0}, "tle": {"line1": "1 32340U 99025CYH 25342.97737436  .00020580  00000+0  30735-2 0  9993", "line2": "2 32340  98.9824 348.3726 0034216 306.2710  53.5335 14.74407409971418"}}, "geometry": {"type": "Point", "coordinates": [-43.893695905675195, 74.23915535313989]}}, {"type": "Feature", "properties": {"norad_id": 32342, "name": "FENGYUN 1C DEB", "group": "fengyun-1c-debris", "lat": -81.05013184213128, "lon": 97.62264839578015, "alt_km": 855.0855274759033, "timestamp": "2025-12-10T14:53:37.377296+00:00", "meta": {"OBJECT_NAME": "FENGYUN 1C DEB", "OBJECT_ID": "1999-025CYK", "EPOCH": "2025-12-10T06:55:42.906720", "MEAN_MOTION": 14.13397158, "ECCENTRICITY": 0.00076048, "INCLINATION": 98.6703, "RA_OF_ASC_NODE": 352.971, "ARG_OF_PERICENTER": 358.6218, "MEAN_ANOMALY": 21.5163, "EPHEMERIS_TYPE": 0, "CLASSIFICATION_TYPE": "U", "NORAD_CAT_ID": 32342, "ELEMENT_SET_NO": 999, "REV_AT_EPOCH": 93683, "BSTAR": 0.00015517234, "MEAN_MOTION_DOT": 2.49e-06, "MEAN_MOTION_DDOT": 0}, "tle": {"line1": "1 32342U 99025CYK 25344.28869105  .00000249  00000+0  15517-3 0  9992", "line2": "2 32342  98.6703 352.9710 0007604 358.6218  21.5163 14.13397158936835"}}, "geometry": {"type": "Point", "coordinates": [97.62264839578015, -81.05013184213128]}}]}